[{"OBJECT_NAME":"STARLINK-4658","OBJECT_ID":"2022-104AA","EPOCH":"2026-03-09T16:30:04.873824","MEAN_MOTION":15.08835574,"ECCENTRICITY":0.00013139,"INCLINATION":53.2169,"RA_OF_ASC_NODE":234.2055,"ARG_OF_PERICENTER":97.36,"MEAN_ANOMALY":262.7542,"EPHEMERIS_TYPE":0,"CLASSIFICATION_TYPE":"U","NORAD_CAT_ID":53612,"ELEMENT_SET_NO":999,"REV_AT_EPOCH":19563,"BSTAR":-1.327939e-6,"MEAN_MOTION_DOT":-3.09e-6,"MEAN_MOTION_DDOT":0},{"OBJECT_NAME":"SL-8 DEB","OBJECT_ID":"1976-098E","EPOCH":"2026-03-09T08:07:12.416160","MEAN_MOTION":15.06605169,"ECCENTRICITY":0.00102283,"INCLINATION":74.028,"RA_OF_ASC_NODE":26.283,"ARG_OF_PERICENTER":218.296,"MEAN_ANOMALY":294.2383,"EPHEMERIS_TYPE":0,"CLASSIFICATION_TYPE":"U","NORAD_CAT_ID":18504,"ELEMENT_SET_NO":999,"REV_AT_EPOCH":18055,"BSTAR":0.0011587434,"MEAN_MOTION_DOT":0.00017191,"MEAN_MOTION_DDOT":0}]
